{"type": "FeatureCollection", "features": [{"type": "Feature", "properties": {"layer": "lahars", "value": "Lahars"}, "geometry": {"type": "MultiPolygon", "coordinates": [[[[74070.79567674651, 2239.0850641757133], [73832.63486076432, 2358.52249001943], [73637.69720803022, 2432.0645825695246], [73475.1941937739, 2500.0], [74240.76259824725, 2500.0], [74240.76259824725, 2190.1057038055314], [74070.79567674651, 2239.0850641757133]]], [[[19612.23128295574, 2433.1166724471914], [19507.99672553302, 2292.3503302174195], [19454.847578694884, 2146.4518850483946], [19427.81811546471, 2023.5145849562723], [19426.676411234424, 1993.850868111249], [19427.72350634649, 1897.999815750236], [19461.486116250002, 1754.8458048884095], [19558.016434747406, 1639.08871836469], [19678.221694154738, 1645.7128306271352], [19844.795989449307, 1702.9868709748516], [20003.4189646996, 1799.9314316323052], [20139.313474864754, 1841.0155880332277], [20074.55006448442, 1705.4140077987904], [19947.998475318178, 1616.0963093238915], [19848.235042196407, 1543.2922380510536], [19749.60688026734, 1380.4276079285773], [19789.118044048315, 1213.8944789538145], [19808.5483535023, 1095.3799359887034], [19849.43177280984, 963.0201669819635], [19883.53860726361, 798.125260100207], [19939.471393859305, 622.6141006611124], [20055.973849887218, 472.98036860769935], [20164.996375686074, 359.2194998721279], [20304.68642547384, 240.2583596630484], [20416.829135418906, 151.757059098014], [20515.081862878487, 59.12722296284119], [20630.799279619358, -11.491921414224635], [20737.587300900585, -87.61567658332206], [20852.910619089744, -147.233306620039], [21005.050147087793, -235.73707623135488], [21198.83491079331, -251.30868605897194], [21377.706446414377, -344.733866603623], [21472.04638187311, -422.8094113850857], [21624.222153258474, -550.4697576516701], [21707.824324456604, -628.7603094162841], [21802.15820212585, -717.5309892034256], [21990.378721729587, -848.4943272493801], [22104.276826833535, -906.708906551592], [22210.6768761079, -961.1359257048734], [22351.346112711522, -1006.4167244064429], [22508.452095594042, -1085.6015995950147], [22634.81483606725, -1138.2845384889933], [22782.232112003672, -1176.0005376848076], [22953.197478667964, -1201.2053549600441], [23205.142147743652, -1245.3672976239905], [23414.955380033985, -1230.4102691239568], [23554.36950954357, -1164.3739406998156], [23713.826735860366, -1135.7052390314402], [23871.46490737485, -1094.6316648496013], [24002.35912931525, -1070.027242567492], [24172.516270170956, -1030.4929830682067], [24314.114923540663, -1012.8333971202137], [24494.976636934844, -980.2440651004163], [24631.28580845787, -964.3929048195023], [24776.436339075306, -943.126423611031], [24900.226278825787, -925.7361153279326], [25035.12539786043, -933.4076585585353], [25302.742189291377, -946.6900191298882], [25437.662434454516, -968.592318499972], [25565.386342189882, -979.9869304630029], [25694.59575836544, -989.160486923447], [25837.008146109274, -1025.545344854274], [25946.95511114074, -1058.5553632320189], [26092.579807922044, -1087.4025269300128], [26249.216992047383, -1105.7793827082223], [26367.6779425729, -1108.0526951406755], [26580.207230868902, -1021.2146139862416], [26656.418805337795, -914.6063852615371], [26692.666610151864, -800.8357534525767], [26704.8345432518, -596.0754826405228], [26741.366632234123, -180.58344714562918], [26762.442906509867, 43.91199067119305], [26782.609123815666, 162.73030751394253], [26804.136986443147, 322.8371337975841], [26914.389320519353, 577.3179588121639], [26911.369917812845, 693.9696716175222], [26786.734567780994, 751.9699450113912], [26670.64204999314, 865.6773009836488], [26667.19677038358, 1014.6764718992326], [26742.621732453277, 1171.7938344240702], [26789.563854359083, 1285.7351962204393], [26802.577685301898, 1415.1055786757333], [26784.48187269238, 1578.444470572329], [26644.22401679944, 1616.3044186698426], [26506.725432790114, 1697.5852553063341], [26490.820147142895, 1823.2424704907571], [26457.122794247327, 1952.210487712102], [26424.78090386874, 2111.771835683885], [26404.500819071167, 2323.487721141946], [26385.001199509235, 2473.9993215482336], [26383.42397949312, 2500.0], [27216.857529130157, 2500.0], [27276.894955843498, 2469.702691375749], [27386.008731041125, 2441.54765483789], [27473.305106372238, 2474.6120526813847], [27520.884679315102, 2500.0], [29422.91301028748, 2500.0], [29401.422928366155, 2484.314692253465], [29244.54495381499, 2396.2685846312634], [29101.8270342552, 2145.1625012988643], [29062.48450995043, 1974.0909981533205], [29025.29898442007, 1758.1779988432136], [28945.923584988668, 1626.2658507883589], [28845.10117169976, 1518.8943246059735], [28688.33051619519, 1388.2007161713645], [28544.890708132516, 1368.67143477042], [28318.098858191308, 1274.4763502685546], [28211.601965121783, 1140.6767281790126], [28097.415515598434, 914.9808813636555], [28039.790250694125, 793.7540797579404], [27978.277807576862, 655.0402292018716], [27903.241048435895, 476.22620165349144], [27827.422130664592, 330.11057331070697], [27762.325913983062, 209.13568644987754], [27685.944268863783, -7.386719123072908], [27715.099792728943, -206.52669238229282], [27790.235673607047, -333.3204570478865], [27870.730794316834, -490.30252294664933], [27972.524453902777, -572.2105445385514], [28093.633314955445, -665.859138660875], [28204.377462964323, -756.4935224890141], [28316.535962536458, -841.4158110780154], [28235.75686453287, -986.1550577396665], [28130.191204863655, -1028.5077921655447], [28014.330363131492, -1099.843089458278], [27918.495889466052, -1212.125857635183], [27865.715797461547, -1451.7136600487029], [27799.246357723176, -1635.3671098158538], [27756.314431369523, -1799.3944026083336], [27718.36554361142, -1950.5226290606406], [27698.210225260023, -2076.455937019291], [27692.667611594312, -2206.077830770784], [27699.644238487657, -2337.239008871382], [27699.106035008095, -2468.192443102991], [27697.525356174017, -2500.0], [20911.571740617055, -2500.0], [20871.976761411675, -2468.0728016164485], [20728.36305029354, -2327.442313060241], [20650.06244798452, -2225.953230651661], [20512.138125118887, -2083.8205222755732], [20350.644558744232, -1939.9685268501034], [20182.01954698234, -1799.795033159462], [20026.291198969753, -1675.7424013729615], [19899.05512501151, -1544.1344645951503], [19810.108777324574, -1460.5818506661744], [19623.652504897786, -1334.95291342169], [19464.328150491798, -1214.5516836668485], [19346.851945595765, -1127.9034765429915], [19143.93603927968, -982.6460171080198], [19044.295846781748, -899.2639723017146], [18901.021708500393, -762.5642316873382], [18818.802027141584, -657.2159316388625], [18725.82935062387, -527.1570046439683], [18672.480965139082, -400.32918360066833], [18620.165061643973, -235.39749881321404], [18503.213805027575, -67.69159229814068], [18382.722513043056, 117.79770755817663], [18325.794801942066, 244.55367934737114], [18264.958820765052, 368.05352525958915], [18191.60505778176, 521.5983416994131], [18163.234698588753, 641.7235620963766], [18118.82039228599, 756.2454182714082], [18013.005730643934, 895.3543159140208], [17916.487131960115, 1032.5016599901155], [17785.27926211091, 1203.5455022580027], [17735.531433186796, 1316.2142800216188], [17617.214176902955, 1460.442237616855], [17516.71184754777, 1615.6347861922332], [17394.45451636982, 1777.952606751729], [17301.541105663695, 1883.1303681690597], [17218.29510868268, 1961.069940425201], [17107.518548820168, 2073.049222097028], [16966.05751366867, 2186.6489737326], [16849.958053733695, 2289.6600150949307], [16712.706874054114, 2407.534707116718], [16672.579625659073, 2435.909249707135], [16510.31432845138, 2496.3149626759887], [16482.52530300619, 2500.0], [19678.094792366042, 2500.0], [19612.23128295574, 2433.1166724471914]]], [[[38920.55772338798, 2492.147560785026], [39038.03744658352, 2416.1916903534657], [39180.479579950916, 2358.4584903498253], [39346.49070792935, 2299.0054540297024], [39472.46331646346, 2268.0168063526035], [39618.07536938801, 2246.282738674887], [39741.87865295561, 2238.744991196858], [39903.540597339736, 2233.3091455639187], [40081.58567655787, 2229.545322804872], [40228.989575156855, 2198.9418249486152], [40428.87541292775, 2159.635584141859], [40604.7662569111, 2154.396852920374], [40760.631203668665, 2190.106322736494], [40944.62221009527, 2269.3421215749477], [41155.740393383625, 2361.1601013547734], [41296.53951792316, 2436.4413121966027], [41448.64393476637, 2500.0], [45760.65835211372, 2500.0], [45688.46488682917, 2475.402597836517], [45330.73999210067, 2360.1191251179043], [45010.51283110078, 2236.595462117337], [44715.59940408643, 2120.2500465172816], [44508.02924151288, 2042.7197065710243], [44231.29782836651, 1929.8733481305171], [44007.67296618174, 1853.854198721965], [43835.76704394389, 1805.4147156461695], [43625.03249294784, 1702.5799870059018], [43505.220711716735, 1638.6320868875082], [43378.66254550618, 1567.1209569471139], [43249.94334927529, 1501.2549790103549], [43106.94666170751, 1452.9575159025226], [42990.68303928251, 1428.2439495858052], [42857.587003338296, 1419.9294561296701], [42702.14726248791, 1351.8701776819253], [42593.39708431019, 1298.4441175748398], [42475.49137095056, 1406.7471991648963], [42355.7775361593, 1520.3404393971323], [42174.148992678485, 1541.8435483075045], [42057.08323609299, 1564.061509569532], [41915.055206571335, 1568.0572522590155], [41773.4105843457, 1568.1663588748925], [41474.145625461926, 1502.2793531736643], [41321.82248177704, 1477.29249319866], [41189.1325961489, 1450.8647461143119], [41075.07708098693, 1392.0520339544782], [40979.63621208802, 1240.262895514672], [40865.18652826954, 1192.4517760175695], [40731.103376961146, 1146.0814558325255], [40575.21136568516, 1113.907466751949], [40422.91064839598, 1103.195520642781], [40259.111279995894, 1110.7363675187335], [40097.86463366676, 1090.940260310148], [39945.51992440499, 1080.1838064490112], [39793.80915676088, 1136.3433054886664], [39646.409689050415, 1149.1362999986377], [39516.84716482541, 1187.1686808578452], [39319.73278065961, 1291.285739374096], [39149.73453600214, 1415.1004629400486], [38950.418853658724, 1564.014357666325], [38780.42532807047, 1670.0184736663978], [38560.07213085322, 1807.5456880024503], [38447.97392246098, 1867.5882219794476], [38360.76243938801, 1967.1549196725864], [38273.152396036494, 2095.5336546034887], [38201.61341604027, 2225.980174068558], [38102.92151057646, 2375.885441764811], [37990.817140237865, 2425.232685540079], [37841.25430502408, 2472.1717671543265], [37751.94773015387, 2500.0], [38907.14685785741, 2500.0], [38920.55772338798, 2492.147560785026]]], [[[50182.76742282278, -2438.955474686576], [50362.016716036575, -2259.0666765513524], [50436.41744540939, -2157.8595662591506], [50562.5685658123, -2050.419134786218], [50740.83695856435, -1944.2117002747618], [50844.199860185676, -1867.7513860826548], [50960.03391226771, -1775.0634682568234], [51052.34623982908, -1698.4232597358678], [51173.493136000165, -1589.6514530673194], [51323.26224063762, -1501.695802129896], [51415.52222896014, -1389.4787095358115], [51494.900316160885, -1286.0675135931633], [51596.06891694246, -1154.1146797103538], [51698.254101156934, -987.6373827597381], [51790.15784999437, -875.0694221521153], [51896.21811492344, -712.4955855798617], [52050.90177237919, -579.6435742740396], [52177.457417753176, -490.320221901271], [52259.01077949655, -399.6646552677339], [52370.91542920341, -296.00246562170287], [52562.01557196153, -191.7290700663798], [52706.79513837819, -127.36809365330555], [52938.90748723097, -17.077024222428008], [53051.59804293725, 36.07584064987168], [53185.32698435268, 100.61681786107147], [53315.85373120665, 150.50426000604057], [53554.48362519573, 183.32686282812574], [53690.80673969751, 192.06879263243536], [53817.7269308197, 245.4198277081523], [53957.570915137214, 279.1152938765372], [54071.68650700498, 330.86483810164646], [54225.34125019872, 407.8015733553766], [54323.38104473056, 475.2931979130153], [54440.629742306526, 573.6932394026117], [54595.65296730622, 702.6144212526124], [54707.520095149725, 816.927260403485], [54858.61387752736, 956.8227538200408], [55069.94587012447, 1137.2242413952226], [55178.23565427269, 1279.971512286702], [55307.5680953523, 1416.295898006385], [55413.67635736242, 1561.1034805218042], [55510.50706540507, 1739.9584198657722], [55602.750363640895, 1848.5955730612513], [55696.775025087816, 1955.4785816279982], [55799.368846213416, 2086.028243618435], [55918.40511100461, 2193.369426158988], [56064.15915107986, 2320.716479895], [56242.36887403831, 2451.8052760216415], [56353.66615418169, 2500.0], [64594.92452297387, 2500.0], [64574.70559674763, 2460.3531442725216], [64447.59461716877, 2265.001170249121], [64320.51067816124, 2066.113607671188], [64199.71409559561, 1946.2960680609867], [64066.425110706106, 1824.4817476490498], [63950.607839934295, 1735.3742757974942], [63815.919021335576, 1582.92175096157], [63651.95156471165, 1473.4223769823584], [63392.73810246512, 1347.0128100147158], [63283.595596784915, 1315.2783494035066], [63145.92066871363, 1258.1323427473872], [63005.12930087621, 1157.9158920047375], [62903.53730203, 1086.8173741603423], [62707.49139981535, 958.9945498347952], [62608.04144655217, 867.9803305143832], [62508.247618344874, 798.7076500810435], [62417.74388178209, 716.7783149679453], [62321.91085144979, 615.1850825634501], [62238.547109110805, 501.3131281731876], [62131.066063582126, 322.3323469020579], [62067.68865482227, 224.4808360315801], [61971.45755359046, 151.7000043728949], [61877.405848560054, 48.35265764926589], [61770.501430346616, -38.82995347371252], [61652.8378739077, -111.99691769658602], [61520.92789984158, -188.94232727926283], [61344.0428902914, -268.0908055487271], [61216.69752806338, -289.09372427342896], [61035.480835072754, -310.64479579441104], [60911.62895168505, -303.1588363612718], [60712.58643322745, -328.55982048529404], [60522.42360522508, -359.19572185680954], [60368.301677277566, -375.3227950889559], [60212.41537180974, -386.11570908125213], [60057.91015523973, -398.3565656819919], [59902.01756211322, -419.84486186327194], [59637.95700374346, -410.0818602692161], [59503.46952947859, -427.64850010216105], [59203.41167205028, -432.3498812798316], [59076.007682737785, -428.47132644855446], [58869.3768941826, -403.85749278134244], [58604.53060324765, -343.58534211072765], [58389.98267772495, -272.1412192542921], [58208.28821299187, -225.76786304348207], [58006.64724940511, -177.5594497408092], [57838.859865139566, -123.47712077887627], [57639.01047340432, -84.13822990749031], [57396.28614419505, -38.45664545592081], [57209.28343716606, -25.977882793264143], [56989.810417325934, 7.685162865276652], [56785.01954939256, 5.662994790352968], [56634.02468611526, 25.49079695702676], [56384.21680396503, 49.72695276424565], [56217.252705147665, 42.64906763895851], [56029.271160938966, 9.952463671605074], [55860.8903400978, -31.343572513360414], [55733.95346430277, -88.27463128724412], [55545.02232618353, -215.9988852213355], [55350.34908483658, -309.6485643515298], [55264.7954374745, -385.83863054230824], [55172.90829704932, -494.826498229133], [55023.21454008728, -604.0836936627456], [54881.982997273466, -647.0264749928647], [54638.792932149554, -753.6020558999917], [54379.10177776481, -812.087821906036], [54279.27023005375, -870.7100257061466], [54143.02235186135, -900.7535846006758], [53939.004701184116, -974.6759041789701], [53834.24392950465, -1053.2682459725038], [53673.40325943006, -1126.8132042291072], [53564.29217860586, -1179.8941236442588], [53430.1965852593, -1236.9688157920573], [53312.56020839823, -1313.6717031066473], [53205.651450822596, -1383.0439632820962], [53042.04428867231, -1510.7053942560815], [52888.37704739384, -1609.0327905004742], [52710.9907160203, -1801.2817902839852], [52488.55401879552, -1974.4323479460327], [52329.94719791235, -2085.6146652687967], [52160.61266258487, -2204.1277067624505], [52016.258556245666, -2300.8363880692814], [51927.53592943514, -2384.5201787649166], [51784.9297168498, -2490.142816687752], [51773.86043350285, -2500.0], [50134.113419410896, -2500.0], [50182.76742282278, -2438.955474686576]], [[57130.134378638344, 939.7450370043189], [57308.186585662435, 935.9921239062533], [57505.47498324333, 959.6118738113219], [57697.84887184022, 938.3355670378623], [57827.41564492062, 900.3105853373854], [58054.407781849324, 848.6296544679681], [58245.790498159244, 760.7872077159045], [58386.50371261394, 687.049849089115], [58533.892154797126, 670.6856368551344], [58656.28543660701, 657.443177781377], [58833.964660944665, 650.460931371741], [58993.841002831585, 653.9043090555024], [59171.1283656483, 686.4297134956832], [59290.92330672608, 746.7967440433567], [59403.23650627439, 814.530998159793], [59595.30704516778, 999.600686703041], [59726.802111159945, 1101.7785310217005], [59844.008917474814, 1228.6398638358369], [59985.785638668865, 1384.727172250954], [60072.74337525554, 1473.7447910152405], [60187.78119248749, 1624.0570453278197], [60268.08372191283, 1854.5371603101376], [60226.86214009758, 1990.8274602728197], [60112.50602880177, 2102.7320997619427], [59973.61161330042, 2164.0645522941704], [59741.227340769365, 2238.774207900882], [59544.12359012889, 2346.460699833715], [59391.02467640911, 2375.553552899619], [59240.815547624064, 2344.872131773125], [59052.88635916909, 2276.5987098091573], [58915.23420795736, 2233.727747258483], [58751.82653593822, 2212.44655237006], [58554.5443727534, 2199.5219963071177], [58313.68097252044, 2204.337251291061], [58109.61731710208, 2176.687574325926], [57937.286182360884, 2160.5966382163897], [57718.242657555755, 2144.1011043875587], [57539.16358074273, 2120.4449664897984], [57367.24109793891, 2068.426284916306], [57222.85970056344, 1975.2531735542507], [57017.47571170796, 1877.8526829908224], [56928.36980278282, 1798.0552809926921], [56803.995719928185, 1706.671697918111], [56606.59159151296, 1519.7485102679639], [56537.863895302464, 1416.4638260250686], [56478.52667924102, 1247.179302759574], [56598.60825200998, 1097.6202273606177], [56753.93477634044, 1020.1948796281649], [56962.7512825951, 975.7102585677931], [57130.134378638344, 939.7450370043189]]], [[[62470.715678418055, -2404.778146678429], [62666.394745239595, -2269.489244964676], [62805.02346377431, -2135.126621553143], [63029.74885759787, -1839.9358453066525], [63112.66012550412, -1690.1808727336283], [63177.42699789362, -1554.575866559404], [63273.80509031135, -1339.8383302821858], [63348.41770136716, -1110.860950505612], [63451.66590367783, -714.5597080254374], [63504.87318159551, -489.50386402349613], [63570.98134504529, -298.3790937564263], [63663.38834990206, -44.20547881154198], [63809.24760052287, 253.55927378920023], [63933.18783828438, 412.9117536397316], [64188.635748131404, 695.8324721685094], [64401.29823362155, 938.8682102917264], [64605.43559979904, 1158.2821622386764], [64777.526088747225, 1338.0266243930637], [64953.147625142665, 1535.6089849697055], [65078.49828778803, 1718.484199481536], [65176.265881150975, 1970.9757196070532], [65204.111716041814, 2206.619790151228], [65190.986935790206, 2407.784706469127], [65210.795823830944, 2500.0], [66844.38134687232, 2500.0], [66904.40688258136, 2400.448012018198], [66968.86902849303, 2259.2543047413455], [67020.42850053895, 2123.4857112423088], [67025.24399709562, 2008.658847102619], [67039.72482752052, 1838.0875822616945], [67024.94367870972, 1714.049500602625], [66988.73034042396, 1589.625078892852], [66947.5646929337, 1430.9553775606146], [66907.81382732262, 1277.997684316877], [66904.0706900835, 1132.3889581086696], [66891.82941024833, 959.6228536251365], [66904.18938691472, 794.736550651578], [66978.76939592985, 561.9154298209978], [67020.02231954884, 404.2790082541105], [67066.58792772098, 262.726669946911], [67107.50733964173, 119.71653173149389], [67128.70684070227, 6.562763152236585], [67161.04690708512, -152.99849855193315], [67239.77663307582, -304.6446837104522], [67367.38782862521, -479.33736334783316], [67486.65418390885, -528.5352920481091], [67688.73081299286, -616.207484618084], [67963.73027375332, -807.2651191963887], [68087.38067684104, -949.6373351792499], [68160.30960426113, -1042.327325096172], [68189.1183133522, -1219.7265205323783], [68186.18820320282, -1419.379885647766], [68165.09701674659, -1636.7628354928383], [68163.95440930122, -1827.4748505812313], [68148.16949537655, -2039.4694479574973], [68128.80736779058, -2223.0296692391566], [68123.36856618884, -2395.301151519481], [68115.62497054132, -2500.0], [67648.04527514319, -2500.0], [67643.36039779395, -2344.730628530342], [67614.57259813676, -2181.5622960271576], [67550.18113669439, -2043.85978948708], [67486.12326040119, -1920.7834516556832], [67382.08622532763, -1765.620156865385], [67277.07240147237, -1701.9489186746505], [67158.1833229262, -1667.3325039054762], [67018.35186681252, -1679.6366055393773], [66898.14845584874, -1704.0755950807215], [66652.31823664012, -1708.5789234798358], [66421.98532049073, -1849.1288075224875], [66359.02694839059, -1990.023168143107], [66407.39051569688, -2129.749585270707], [66561.37570221648, -2262.6951381992585], [66685.45774010796, -2426.7194962013346], [66707.4751545303, -2500.0], [65323.063891171114, -2500.0], [65336.67767032025, -2410.3834808138126], [65369.29082770347, -2271.800298389193], [65383.67996334113, -2108.254695314332], [65403.83839532241, -1982.3192203750368], [65412.92546614277, -1841.9728778871831], [65418.81036957327, -1716.2799217126558], [65432.832927744676, -1545.2681265296815], [65420.49392488647, -1394.6127344621527], [65425.99104475079, -1247.2228153898832], [65395.82018724625, -1111.1126106063602], [65390.637856060755, -988.8195389527682], [65392.551522669746, -823.6908320914699], [65394.49666215011, -679.9079995836073], [65436.63262301916, -440.44159922996914], [65489.8023029309, -204.735046708789], [65489.93871480382, -55.66275930431948], [65421.155286842564, 136.0126565093924], [65309.229755919325, 46.58191391671426], [65204.50466610642, -71.16690585202741], [65105.52188042745, -222.9903680057796], [65013.64968126817, -356.9040171260567], [64909.71026368745, -525.1622368577591], [64846.401955619986, -655.0105385044371], [64772.726433578224, -810.3510495588671], [64678.685298949815, -920.8136430084778], [64536.48962132738, -1033.857396491152], [64408.56775485458, -1146.6583695804438], [64253.517456834634, -1272.043501842858], [64100.64865777847, -1399.4886898028853], [63894.273241991206, -1563.454491466], [63731.148098900565, -1776.850641529465], [63624.98133209949, -1896.7763102674653], [63527.377534753425, -2003.7305842008755], [63401.618223024285, -2150.6780647645137], [63319.094645836936, -2322.1297200460795], [63246.867112153064, -2464.598401233088], [63223.51333377265, -2500.0], [62365.63276219796, -2500.0], [62470.715678418055, -2404.778146678429]]], [[[69940.58043213714, -2376.3386305473105], [69938.97756985489, -2253.9738862854792], [69900.27078442031, -2134.3703165854167], [69835.86275454983, -2000.247741349267], [69743.90313414033, -1817.8552105440249], [69669.20323575809, -1730.526443078059], [69612.28738266334, -1610.886606664324], [69530.0054538973, -1462.8476530440457], [69406.93154259962, -1228.676870982992], [69253.11014650983, -950.1944394918974], [69199.42776415497, -837.2471383169541], [69071.33898166305, -594.6296176490505], [69000.76785625677, -411.89531786585576], [68907.40419856484, -242.33027466943167], [68794.46877939565, -114.01783009652718], [68701.95987496531, -26.959048798846197], [68574.71344947041, 111.76147059814684], [68499.99267641341, 213.32101806898572], [68419.92173091596, 309.4473778452666], [68309.13454674155, 428.53943368477485], [68245.15175662962, 530.3142766354649], [68161.28799758438, 786.4873836182087], [68145.7404964279, 911.7942888879479], [68128.65493467954, 1145.2796428682414], [68090.55631719322, 1335.3357735985846], [68067.10825346477, 1511.0527798495605], [68052.99842496467, 1656.3471666808182], [68044.21593910598, 1792.799203286595], [68014.25043328645, 2045.9850260058738], [67988.05257439555, 2171.1655839248706], [67925.45739250991, 2282.1881434974202], [67846.35050911014, 2448.4159141436103], [67819.51960983565, 2500.0], [71412.01993428523, 2500.0], [71441.14457436462, 2478.9140817237494], [71578.64379676143, 2397.6377156212548], [71675.15806856615, 2278.3026109598068], [71776.23523929033, 2214.9099097076905], [71854.5089975847, 2116.9573136255713], [72016.00246418608, 1973.108440157659], [72168.17374242579, 1863.2624310947285], [72297.14761227026, 1729.8581310630834], [72429.31236577182, 1618.2225857345984], [72572.9973088105, 1474.1039452869663], [72704.1893363471, 1299.482607347636], [72812.5672902938, 1097.416985254611], [72868.1133510245, 943.6035214091389], [72959.69826869901, 775.7925665064031], [73031.6385003326, 616.5366585059892], [73038.23856984152, 499.9562814057135], [73071.96474528895, 367.4535979800785], [73126.07990482086, 204.3480843745201], [73179.45638240136, 73.98560000141151], [73317.73116582792, -79.19038739601092], [73419.22375175855, -167.8154622638176], [73496.90691229387, -361.1456400967363], [73556.84085171329, -579.6268259815188], [73577.68689167764, -692.4291542257633], [73582.91536500945, -843.1829514986239], [73580.93587732653, -976.3138611004179], [73568.30802269783, -1127.3825781285486], [73555.29789687794, -1246.0591519477966], [73574.74756599242, -1378.8048822191631], [73602.1939273923, -1597.4931021852026], [73579.66535600138, -1834.8634797980776], [73543.47283294026, -1973.5183133589526], [73533.00257870098, -2140.9228696700156], [73509.26479276492, -2266.9301854175064], [73458.81957994842, -2420.058356796093], [73442.8724144287, -2500.0], [69959.67698840032, -2500.0], [69940.58043213714, -2376.3386305473105]]], [[[16086.55155004434, 2457.9247541814057], [15998.929448231993, 2398.162634697105], [15862.858020244177, 2339.7961926011176], [15548.983417787833, 2178.5476999820294], [15432.547194349063, 2147.2465146072554], [15256.606054149164, 2106.8246126292024], [15250.112006179792, 2020.4165351593065], [15279.185460402448, 1923.80774015918], [15308.637859388109, 1841.1235231106884], [15325.562261711693, 1692.2705649802301], [15281.228623873598, 1561.022182278556], [15210.273230751573, 1449.0594555772432], [15143.991524768173, 1407.4036912357478], [15047.15250306457, 1385.3122982062823], [14871.2073817645, 1362.700977202555], [14830.209765497315, 1303.2520585062275], [14825.169416130524, 1240.4112898860267], [14822.120210458834, 1096.9291522832864], [14767.485257388365, 926.0023657538204], [14707.462428995572, 760.2935928058587], [14618.624548194875, 594.5398118616095], [14450.390810911136, 442.93683549106026], [14246.228570836796, 319.696052988289], [14077.780443607728, 264.79137401901426], [13873.663431420307, 170.10134052413378], [13721.485665194963, 45.4927651853759], [13596.396260942027, -84.38778728332272], [13503.640809712113, -217.77629740101202], [13475.724044920786, -340.191788392588], [13485.572926292227, -471.28860011753204], [13516.726656132585, -619.9438754522453], [13524.46339259061, -677.6480034734623], [13520.927956813099, -677.6752022910341], [13456.433454762106, -710.3898034945369], [13402.631576418004, -771.4400175855062], [13338.431615190766, -836.6360989341238], [13272.492593934598, -928.5396344686314], [13213.946041779349, -1056.4057913606475], [13110.252027878836, -1146.7436513429366], [12981.269137851301, -1201.4774079535991], [12839.24323136259, -1203.895596657775], [12726.327080073203, -1238.7504087778625], [12663.585265800284, -1298.1898011324674], [12641.04706937708, -1390.2016523340262], [12611.01541527328, -1496.2368628442737], [12559.295178181625, -1580.827222812868], [12527.52132819847, -1667.2530333627292], [12508.506634403548, -1780.628442596123], [12528.661356296756, -1889.857575062074], [12560.48688736313, -2085.57617822222], [12534.046431646799, -2170.148989175984], [12471.366531277023, -2197.4576307312836], [12368.523707687433, -2145.8325700929563], [12317.700001615116, -2059.909495690782], [12234.475955456764, -1984.7982228847095], [12120.735266843403, -1843.76074311506], [11947.4606771896, -1736.813971274919], [11720.470104289787, -1616.0052026138956], [11542.49482048233, -1575.829868537121], [11378.448496326531, -1513.6707818697441], [11254.504586768351, -1534.0700815972841], [11179.658947540956, -1617.2029627917182], [11119.326654796198, -1725.5041492161454], [11037.597258716913, -1901.854378838857], [10950.247749741222, -2008.3746043844276], [10835.571431058986, -2055.706093910444], [10707.7418467705, -2065.086155336525], [10609.12301374616, -2056.9170904996345], [10479.534715183941, -2050.2676302202462], [10274.492338697411, -2019.0511765511374], [10013.647829104228, -1932.6215378657025], [9869.786461637912, -1926.2144869075128], [9699.235444139451, -1943.347938280148], [9534.349889876761, -2001.7606854505534], [9385.458633033331, -2065.309675464501], [9150.689615998135, -2179.7253175684423], [9069.586533915653, -2110.2988764671054], [8957.575995359104, -2010.2615605873343], [8838.683240315073, -1974.9352454087607], [8595.913183968118, -1945.6882384864862], [8283.655042400318, -1954.9394683046626], [8058.992599877043, -1975.715102798943], [8020.060231515469, -2062.2842237291134], [7896.454736546348, -2115.120346759848], [7804.345305426364, -2045.4690492128361], [7670.924231237985, -1960.0483090417083], [7541.0203740239285, -1906.6863444972078], [7287.274185735587, -1823.7375773201998], [7042.745524458667, -1778.4608251922105], [6703.115408455922, -1757.0736460088997], [6455.300493081216, -1772.8562597729087], [6342.079400680686, -1768.1138334484535], [6306.691640216874, -1890.2774024544428], [6245.461047030273, -1876.2077606127923], [6110.601386253704, -1839.2804998053793], [6006.292999385275, -1832.613338766911], [5857.081611307581, -1831.6390253801485], [5695.754507388342, -1875.7490410284347], [5529.077287369549, -1925.292027576697], [5331.4366460930305, -1965.6592326916139], [5189.740209090173, -1964.8922605104474], [5085.11613383658, -1911.5128119886988], [4942.842985127118, -1824.3921248295808], [4791.240451325694, -1742.4697769504908], [4589.445379961997, -1668.0487663218987], [4462.298439028264, -1731.6071470432405], [4403.75805635107, -1848.777698383022], [4355.894980915927, -1969.3576801169818], [4344.016367935515, -2096.8649196050974], [4310.7887565082765, -2206.857983722383], [4225.789510883689, -2119.2970334024503], [4131.876074802585, -2062.1667576862114], [4009.4993565620252, -1987.6214841986582], [3854.344619988448, -1909.3062194032243], [3750.0484207932045, -1881.2481674619885], [3589.593668818891, -1797.6260050780093], [3440.1333143864967, -1735.6193062014574], [3308.516379927459, -1637.6769941789282], [3108.508603892287, -1554.3146916793637], [2989.964936479096, -1558.5405484544103], [2862.8134474013928, -1604.2880361928387], [2811.060093987154, -1696.038096026883], [2741.5147835845255, -1784.4777376867467], [2630.4012751881046, -1835.3169039046793], [2538.879241529067, -1859.134742667357], [2400.7227640835094, -1876.1512135173416], [2267.916463003184, -1887.734910363422], [2153.151241029069, -1963.6610099405627], [2088.949850187627, -2057.363062549007], [2046.1981854264093, -2118.5931622340663], [1973.06766622257, -2217.7998818233355], [1841.152118541429, -2390.955758513901], [1809.328389051702, -2488.121213316734], [1814.5860946692226, -2500.0], [577.1724084967444, -2500.0], [435.6559148641094, -2368.7878666509678], [368.16803164130056, -2420.2199964028223], [342.6977434057753, -2395.4897882573914], [379.3867590944575, -2338.9910029132043], [268.4665948627121, -2259.9392319840363], [579.763244341376, -2062.8199872304103], [606.4587503506426, -2028.5843091347613], [616.7812850671188, -2003.1366504339926], [589.4692267277011, -1980.2768785126593], [311.73091146865636, -2139.0414636596342], [221.116221912392, -2217.5222316468307], [119.65536387352824, -2161.6443732855537], [0.0, -2077.74124932997], [0.0, -1726.3299331909866], [48.71621141025173, -1753.3832321009647], [215.85040505039876, -1763.2348889609923], [225.14574757935497, -1673.2699132555445], [0.0, -1581.9402785394427], [0.0, -569.7741316552576], [13.93869819009086, -577.259321060433], [95.25811021353559, -588.7434769504231], [120.32353511295571, -595.3566817897496], [189.17690889336433, -640.878531939971], [230.67583230855095, -635.0790798924454], [253.39187241330492, -600.6087820202494], [258.3101801441925, -573.5234983402486], [238.1839193890795, -554.0555310327047], [182.75143891724863, -564.0281219597399], [166.30275400610648, -551.5146899757025], [168.0357471579958, -535.5027119353975], [153.2806692024037, -524.8325195711766], [0.0, -494.086187659426], [0.0, -283.2709863376512], [106.64163183950599, -299.2647873860887], [158.4296902761208, -275.1777067978031], [177.69823260830887, -240.6456296430944], [182.89029621854763, -111.37835178265979], [171.32670943499056, -78.93959580258561], [0.0, -71.96277176631467], [0.0, 781.5288382476385], [121.46173347365453, 818.1957856197791], [138.0251844659649, 802.2361289499595], [180.54443433518907, 824.7492364760635], [220.20169311117525, 828.6782867824297], [243.5130634276764, 820.283688061271], [265.42052936305123, 799.0616125064996], [280.13629591268193, 770.5362588144712], [294.1037391165185, 689.9430675129618], [325.3284644553252, 652.528811448096], [366.49843204161596, 655.1435667154317], [384.3569155936549, 666.1530327381819], [392.7348584686964, 714.5672109007087], [997.6532758035189, 729.5620038573504], [1182.569668649258, 843.9476163976127], [1925.9181465147212, 880.5137224174746], [1963.039106062914, 915.3600843835001], [2295.0395360121947, 926.1340482876959], [2316.9409516971914, 894.2167966153827], [2358.4670086155406, 896.4806696339009], [2666.481643208739, 601.4151407833176], [2709.363198774009, 634.2727833850493], [2708.898173572035, 648.7652459690314], [2874.9409403476043, 838.0494837847509], [2898.2522434091998, 829.6548599851171], [2923.2692842345664, 840.8076585260624], [3008.096270138525, 924.8125335565287], [3016.906069693493, 951.5743383637696], [2960.1235819880576, 1013.6298035884777], [2828.7936607908123, 1137.515613045835], [2789.3779815030293, 1136.6822559886587], [384.43020243873656, 1012.5566955600443], [370.7081780996305, 969.4048256481007], [356.41233497712517, 954.887317831798], [318.8382793990553, 955.9241258771613], [282.20906540015903, 994.9762727516318], [269.6460636421579, 996.4706328605305], [251.79365731033698, 996.1565349751584], [0.0, 986.5308312328328], [0.0, 1598.956653888387], [234.7638448613335, 1727.1050129031692], [273.6934057209703, 1756.6617769735028], [307.59599400809657, 1773.274812211022], [985.5018512586902, 2078.310499320403], [1036.070679063126, 2054.126908628923], [1064.2186279161942, 2083.4239211854324], [1048.0445737642642, 2106.1927591446815], [1063.6838058943058, 2129.9133144732878], [1182.0576924088316, 2138.955717407154], [1220.0634118627786, 2116.2665556954003], [1239.7305704060195, 2121.986487786062], [1251.7800486783526, 2152.7507406255013], [1273.288826650517, 2160.340999539369], [1490.3150339290014, 2179.7769195131004], [1600.2685760313823, 2168.8666455387474], [1722.2321472284375, 2170.8653999355756], [2701.896077093748, 2247.1687443634537], [2724.6940120006902, 2271.0328854334216], [3001.186177044663, 2293.1358506331126], [3021.3122525766153, 2273.6679283241237], [3272.403928841828, 2288.5042470358953], [3284.9458266107436, 2301.24051465429], [3293.3448801248423, 2335.4241033471267], [3283.945958011071, 2362.2224925633623], [3274.552591182914, 2491.642628926311], [3265.928212438353, 2500.0], [4230.0860879011, 2500.0], [4276.695517562405, 2483.8822921786896], [4579.177174871595, 2356.3628572054045], [4766.397447403145, 2303.4866596843594], [4919.114795951351, 2277.5694733124283], [5183.296618126817, 2291.4448291559984], [5469.154717249629, 2262.4844620591844], [5661.4271727051055, 2265.3327238820066], [5740.134431459775, 2294.6649236134053], [5801.060031259001, 2320.192035722853], [5851.303758258042, 2366.939448981624], [5841.781082145751, 2444.2084087689755], [5786.32055153008, 2500.0], [6912.784495578513, 2500.0], [6964.721279810234, 2470.0334975441065], [7099.929666739568, 2393.554186185571], [7230.932265063588, 2392.6167421448285], [7381.609290526935, 2436.6006790006923], [7469.851148944872, 2410.05468315514], [7474.023869955745, 2327.352698525819], [7512.34366308101, 2218.0422880311103], [7632.949806168427, 2138.1359833040547], [7841.904998679939, 2092.36496588944], [8007.060733488874, 2075.5145504498473], [8222.83152868062, 2080.1346566958687], [8404.065911660611, 2104.5540444769244], [8618.037457227627, 2078.842120132837], [8819.533723208546, 2054.7138818445574], [8998.958092573313, 2055.9165963014825], [9169.56033859121, 2112.29611992468], [9298.53853318587, 2184.840452034562], [9396.526066454757, 2270.095620012138], [9486.312124828739, 2324.2185246623317], [9615.556071217366, 2339.3105838334877], [9750.199911457696, 2370.5758227849738], [9855.974126669716, 2408.866853127155], [10012.560139917554, 2339.844182104907], [10086.533264625712, 2295.2451834164276], [10162.010122025022, 2284.9534491975523], [10433.041129290792, 2356.380414272953], [10660.605012760843, 2413.595675735746], [10998.228973290057, 2497.7768911718513], [11009.88120058388, 2500.0], [16220.98712681608, 2500.0], [16086.55155004434, 2457.9247541814057]]], [[[0.0, -2470.13648885882], [0.0, -2311.452688683064], [152.4367085466995, -2412.6866385719877], [273.7476716709426, -2500.0], [35.62395442365725, -2500.0], [0.0, -2470.13648885882]]], [[[2733.5092275911793, 2400.4162047982213], [2710.361082388527, 2387.598318711532], [2084.043328347724, 2350.871867592284], [2018.3480918430582, 2411.002470100129], [1923.122326059214, 2414.778007633153], [1874.902757873838, 2397.8781039618843], [1844.5146798539668, 2395.5229174011924], [1682.7734394298618, 2290.419873660949], [1622.0453812060807, 2267.9433203497633], [1424.6531491352923, 2247.067546945633], [1315.1103055471642, 2250.5560810342004], [1245.8465212255214, 2303.4996793152013], [1185.097229856156, 2295.253988484086], [1108.2979681204886, 2270.70935278607], [1049.8102806959334, 2221.290995062768], [758.5905872558429, 2114.396484786243], [670.9824316934139, 2093.1275137995167], [650.9378936160595, 2101.989144329982], [604.4512266585306, 2101.1012197086347], [523.6455045505335, 2080.326573995714], [385.4956250990333, 2079.7058628066043], [366.779389998625, 2122.6965474344706], [348.8724684511659, 2129.4533829508505], [204.5578288500633, 2057.0119376766925], [185.4255021243864, 2004.8027243012061], [199.35969884749966, 1917.0493827480122], [232.42017026735311, 1870.8102970784576], [212.83476442507185, 1854.4840884971263], [132.41231610946693, 1829.8231315675782], [0.6668133244982073, 1766.5827427540958], [0.0, 1766.5180991013474], [0.0, 1856.1506996600333], [58.16078123439797, 1887.6782659834896], [97.00859728341698, 1927.841332184335], [105.11189291429741, 1965.999999095904], [102.76884095434207, 2017.778914193243], [89.7467311616814, 2044.4610833775237], [94.94798593348833, 2138.1069153374037], [388.2616847005198, 2248.5533629123765], [705.8764504009982, 2302.439887930275], [1154.604970556522, 2398.259824915233], [1646.6585486901881, 2411.944414897261], [2018.3781083399329, 2458.7778590913867], [2185.9009294359016, 2500.0], [2803.5824921975754, 2500.0], [2733.5092275911793, 2400.4162047982213]]]]}}, {"type": "Feature", "properties": {"layer": "near_volcano_hazards", "value": "Near-volcano hazards"}, "geometry": {"type": "Polygon", "coordinates": [[[56892.74854178393, -2361.9386523950634], [56846.511780739485, -2222.903003449548], [56796.739442859915, -2083.8947056913166], [56735.004404457446, -1975.5618358215725], [56670.603348316436, -1899.865935724014], [56581.88955551323, -1783.3001742684355], [56497.38285443296, -1702.3673039343157], [56407.526092647044, -1626.8678425203507], [56303.691419934104, -1555.5862973840376], [56173.03018729639, -1490.1688246778358], [56006.1043567523, -1421.6721057330833], [55803.12381836165, -1325.6549004190856], [55549.69664939403, -1244.5230112257232], [55333.56656574244, -1220.2923837929047], [55169.91477644569, -1204.0537575581984], [54982.48021410276, -1175.6238779168962], [54740.85685897291, -1140.9387934197075], [54564.59797445706, -1123.2506771075678], [54307.89747540193, -1133.8054631174164], [54071.23146083504, -1146.106079635123], [53855.74580960027, -1154.0004654396907], [53656.73203733693, -1160.1326001267335], [53422.86800384581, -1157.473604538678], [53247.07410011135, -1154.2781487954962], [53074.54705946917, -1150.6154224555794], [52948.1745637437, -1131.4376594788628], [52830.57933400711, -1092.6576556738946], [52722.476433484015, -1069.8915293530154], [52635.3308751373, -1025.131258063815], [52536.98212157739, -966.0936169490851], [52471.694920321475, -861.3683456888939], [52433.726350540164, -768.8066645953695], [52432.06027695477, -689.9748845273098], [52427.60125492698, -569.7976050434081], [52454.138373155256, -468.73899061663906], [52515.93944267892, -338.28317338755005], [52621.97796263894, -172.88091927348069], [52853.74351930237, 68.8890249804208], [52914.33674678826, 172.4644282684094], [53033.56630513586, 300.6675893988868], [53180.06024383077, 423.7773595662038], [53335.14407596794, 556.3232222860424], [53504.490951310676, 696.2270836330208], [53672.05665857541, 837.884907877662], [53815.517374415125, 935.8242921397978], [53951.49042661113, 1030.4352735151297], [54109.28534253714, 1132.2418579773403], [54353.32976231459, 1305.957112022712], [54469.607737728686, 1398.3831661106233], [54542.41536532504, 1448.0904166486616], [54653.672385476966, 1538.2678726959275], [54783.09385455356, 1691.7852129540152], [54911.93120359123, 1881.0521063676388], [54999.63524989413, 2057.0524039982956], [55048.900171053705, 2185.466819069821], [55117.411785496966, 2334.1388305651744], [55138.59873259257, 2429.764500830999], [55154.36571715046, 2500.0], [74240.76259824725, 2500.0], [74240.76259824725, -2500.0], [56951.11726801385, -2500.0], [56892.74854178393, -2361.9386523950634]]]}}]}